#aV2009  9 12  0  0   .00000000      96 DD+AD WGS84 FIT  NGA
## 1548 518400.00000000   900.00000000 55086  .0000000000000
+   32     1  2  3  4  5  6  7  8  9 10 11 12 13 14 15 16 17
+         18 19 20 21 22 23 24 25 26 27 28 29 30 31 32  0  0
+          0  0  0  0  0  0  0  0  0  0  0  0  0  0  0  0  0
+          0  0  0  0  0  0  0  0  0  0  0  0  0  0  0  0  0
+          0  0  0  0  0  0  0  0  0  0  0  0  0  0  0  0  0
++         0  0  0  0  0  0  0  0  0  0  0  0  0  0  0  0  0
++         0  0  0  0  0  0  0  0  0  0  0  0  0  0  0  0  0
++         0  0  0  0  0  0  0  0  0  0  0  0  0  0  0  0  0
++         0  0  0  0  0  0  0  0  0  0  0  0  0  0  0  0  0
++         0  0  0  0  0  0  0  0  0  0  0  0  0  0  0  0  0
%c cc cc ccc ccc cccc cccc cccc cccc ccccc ccccc ccccc ccccc
%c cc cc ccc ccc cccc cccc cccc cccc ccccc ccccc ccccc ccccc
%f  0.0000000  0.000000000  0.00000000000  0.000000000000000
%f  0.0000000  0.000000000  0.00000000000  0.000000000000000
%i    0    0    0    0      0      0      0      0         0
%i    0    0    0    0      0      0      0      0         0
/*      NGA, ST. LOUIS,MO.                                  
/*   EPHEMERIS COMPUTED FROM  3 DAYS OF DATA                
/* CCCCCCCCCCCCCCCCCCCCCCCCCCCCCCCCCCCCCCCCCCCCCCCCCCCCCCCCC
/* CCCCCCCCCCCCCCCCCCCCCCCCCCCCCCCCCCCCCCCCCCCCCCCCCCCCCCCCC
*  2009  9 12 15 15   .00000000                                                 
P  1  17806.277756  19300.032407   4243.976140    -57.818066                    
V  1   1098.740095   6010.870628 -31099.465490      -.002518                    
P  2 -17150.410096  13104.127988  15120.285941    171.885291                    
V  2 -19742.420542   -446.420350 -22321.027088       .029613                    
P  3   9625.306185 -24388.533084   2451.106912    446.208135                    
V  3   2934.532454   4654.247924  31002.264886       .050846                    
P  4 -24904.630643   7200.494092   6468.032336   -262.340056                    
V  4  -8591.977477  -2200.598763 -29611.249493      -.172923                    
P  5  -7440.817411  14566.448091  20900.792260    -93.747710                    
V  5 -16317.347679 -21031.971069   8898.054122       .119093                    
P  6  13523.490431 -22013.168229   6147.298913    237.736253                    
V  6    515.090967   8391.317102  29893.396880       .065839                    
P  7 -20976.917339  -7804.196426  14393.123724     11.603856                    
V  7  17955.838122  -3685.241539  23992.649678      -.006889                    
P  8 -26702.184763   -696.411762   2645.715138   -220.931551                    
V  8   3294.389610  -1572.829237  31811.657610      -.014644                    
P  9   3481.909723  14798.717042 -22445.430401     77.099649                    
V  9 -26601.514320   3684.037372  -1692.435419       .020428                    
P 10  -4992.395064  17020.315952  19499.315137    -23.392941                    
V 10 -15505.420536 -19964.079007  13673.659883      -.008817                    
P 11  -7497.796461 -15195.822276 -20695.923220    -19.308791                    
V 11  24684.264105  -8491.820371  -2369.179020      -.016860                    
P 12  10437.374976  23348.510606  -7343.328929   -220.033745                    
V 12  -7356.210461  -6251.689806 -29983.001307       .057094                    
P 13 -10683.859909 -10277.475598  21909.308755    304.511085                    
V 13  13265.690658 -24700.698781  -5105.060526       .004922                    
P 14  17246.949971  -6753.458907 -18853.630491    -51.945186                    
V 14  -9788.964414  22154.241872 -16899.979060       .052665                    
P 15  -6547.583588  25093.845036  -5532.319114   -317.996230                    
V 15  -5498.701022   5339.331206  30643.422807      -.011591                    
P 16   9675.438799 -12092.937860  21594.135356     13.472805                    
V 16  15922.455114  22205.031092   5551.916410      -.038671                    
P 17 -17533.926970   6475.095437 -18721.439090     84.386169                    
V 17   8815.214002 -22370.313936 -16123.774635       .030109                    
P 18  19340.428292  15303.106704 -10095.607224     12.280471                    
V 18   5039.324694  12405.079983  27398.165205       .029075                    
P 19   6847.861426 -24262.108692  -7857.483186     11.113143                    
V 19   7408.905876  -7500.100513  29698.092478      -.016779                    
P 20 -12693.389605 -22813.518750  -5143.941973     72.460705                    
V 20   6511.727968   3067.333798 -30352.503296      -.009098                    
P 21  23621.004353   6397.503764  11346.108437     -8.747814                    
V 21 -13548.358204   3754.825234  26132.185766      -.022442                    
P 22  18712.735445   3709.124287 -18346.211789    191.156188                    
V 22  11735.175785  20651.695359  15918.970164      -.006543                    
P 23  -1980.033013 -21287.943783  15520.122523    388.643498                    
V 23  10056.321892 -17260.941680 -22638.989087      -.003632                    
P 24  11484.767752  13564.803671  19783.690923    220.009250                    
V 24 -24858.266891   2677.883907  12923.952230       .030031                    
P 25 -14358.278521 -10931.005134  19761.593931    591.525403                    
V 25  23708.306268  -5864.009173  14413.166077       .148685                    
P 26  15474.038965   1564.811106 -22135.345976     62.948712                    
V 26 -12231.349709  23700.739998  -6572.385099      -.009257                    
P 27  -2270.156887  14893.959025 -21190.238383     82.140559                    
V 27 -28220.054117   4022.532936   5693.823510       .031846                    
P 28 -18896.716503  -7023.863484 -17014.755542    -26.170464                    
V 28 -11202.815012 -19372.557153  19624.599637       .000695                    
P 29   9943.828946  13121.501477  20946.702980     56.802998                    
V 29 -12121.351240  23430.164102  -8921.125109       .032815                    
P 30  17472.363344  19921.921334   1904.015317    176.315286                    
V 30   -589.270906   4134.105566 -31413.849508       .031070                    
P 31  23684.716633  -8531.037361   8899.869280    -64.435568                    
V 31  11106.062897    899.771769 -29233.896289       .003778                    
P 32  -5556.978317 -23668.948933 -10631.391489    197.921949                    
V 32   9172.554767  10799.654538 -27557.927570      -.070583                    
EOF
